H1 CPF  1  MCC 2022 10 18 14  7911 larets
H2  0304206 5557    27944 2022 10 17 23 45 00 2022 10 22 23 57 00   180 1 1  0 0 0
H9
10 0 59874 22140.000000 0     -3288096.523      5996750.329     -1752449.254
10 0 59874 22320.000000 0     -2820045.000      5730419.557     -3008681.003
10 0 59874 22500.000000 0     -2259188.560      5241859.342     -4154530.434
10 0 59874 22680.000000 0     -1631663.168      4546969.784     -5148119.775
10 0 59874 22860.000000 0      -965468.747      3669846.309     -5953256.346
10 0 59874 23040.000000 0      -289228.579      2641884.931     -6540721.772
10 0 59874 23220.000000 0       369032.448      1500605.383     -6889283.608
10 0 59874 23400.000000 0       983034.151       288253.290     -6986406.156
10 0 59874 23580.000000 0      1529274.363      -949767.863     -6828658.857
10 0 59874 23760.000000 0      1987914.302     -2166584.842     -6421815.059
10 0 59874 23940.000000 0      2343490.709     -3315606.440     -5780649.466
10 0 59874 24120.000000 0      2585438.109     -4352297.142     -4928441.439
10 0 59874 24300.000000 0      2708401.941     -5235915.150     -3896173.709
10 0 59874 24480.000000 0      2712327.624     -5931138.546     -2721449.244
10 0 59874 24660.000000 0      2602323.090     -6409523.299     -1447151.661
10 0 59874 24840.000000 0      2388297.553     -6650718.116      -119881.582
10 0 59874 25020.000000 0      2084386.887     -6643363.771      1211774.931
10 0 59874 25200.000000 0      1708195.004     -6385626.450      2499065.282
10 0 59874 25380.000000 0      1279890.110     -5885334.368      3694900.291
10 0 59874 25560.000000 0       821203.811     -5159711.144      4755603.273
10 0 59874 25740.000000 0       354387.925     -4234733.052      5642507.796
10 0 59874 25920.000000 0       -98819.932     -3144142.926      6323348.718
10 0 59874 26100.000000 0      -518170.078     -1928168.525      6773394.302
10 0 59874 26280.000000 0      -885774.256      -632016.433      6976293.968
10 0 59874 26460.000000 0     -1186847.279       695806.504      6924638.929
10 0 59874 26640.000000 0     -1410292.661      2005295.643      6620220.500
10 0 59874 26820.000000 0     -1549111.359      3246814.397      6073980.811
10 0 59874 27000.000000 0     -1600622.772      4372968.058      5305657.293
10 0 59874 27180.000000 0     -1566489.739      5340427.719      4343123.415
10 0 59874 27360.000000 0     -1452545.911      6111640.920      3221429.446
10 0 59874 27540.000000 0     -1268431.244      6656352.671      1981560.485
10 0 59874 27720.000000 0     -1027048.610      6952867.321       668943.811
10 0 59874 27900.000000 0      -743858.483      6988976.244      -668241.965
10 0 59874 28080.000000 0      -436051.507      6762500.251     -1980886.633
10 0 59874 28260.000000 0      -121642.686      6281400.030     -3220818.172
10 0 59874 28440.000000 0       181458.956      5563454.073     -4342617.665
10 0 59874 28620.000000 0       456359.885      4635538.323     -5305306.576
10 0 59874 28800.000000 0       688026.099      3532544.820     -6073839.459
10 0 59874 28980.000000 0       864018.475      2295998.307     -6620347.182
10 0 59874 29160.000000 0       975086.341       972441.838     -6925093.690
10 0 59874 29340.000000 0      1015598.117      -388334.576     -6977133.265
10 0 59874 29520.000000 0       983794.673     -1735163.249     -6774663.203
10 0 59874 29700.000000 0       881858.152     -3017400.997     -6325067.505
10 0 59874 29880.000000 0       715797.677     -4186811.041     -5644666.644
10 0 59874 30060.000000 0       495152.287     -5199378.389     -4758164.593
10 0 59874 30240.000000 0       232523.811     -6016987.679     -3697799.123
10 0 59874 30420.000000 0       -57046.021     -6608904.541     -2502211.791
10 0 59874 30600.000000 0      -356828.021     -6952991.806     -1215063.044
10 0 59874 30780.000000 0      -649253.734     -7036599.256       116566.779
10 0 59874 30960.000000 0      -916817.863     -6857070.010      1443928.191
10 0 59874 31140.000000 0     -1142988.864     -6421837.240      2718427.659
10 0 59874 31320.000000 0     -1313078.689     -5748101.515      3893449.820
10 0 59874 31500.000000 0     -1415023.023     -4862103.768      4926089.172
10 0 59874 31680.000000 0     -1440035.750     -3798044.636      5778713.811
10 0 59874 31860.000000 0     -1383108.226     -2596710.251      6420314.330
10 0 59874 32040.000000 0     -1243328.574     -1303866.627      6827587.261
10 0 59874 32220.000000 0     -1024012.520        31495.802      6985733.807
10 0 59874 32400.000000 0      -732646.052      1359011.807      6888965.159
10 0 59874 32580.000000 0      -380634.467      2628823.892      6540706.329
10 0 59874 32760.000000 0        17136.005      3793441.202      5953493.055
10 0 59874 32940.000000 0       442907.087      4809517.045      5148561.711
10 0 59874 33120.000000 0       876810.243      5639489.382      4155135.156
10 0 59874 33300.000000 0      1297753.939      6253021.104      3009411.031
10 0 59874 33480.000000 0      1684404.061      6628184.461      1753279.189
10 0 59874 33660.000000 0      2016212.404      6752321.794       432781.682
10 0 59874 33840.000000 0      2274435.592      6622519.621      -903610.225
10 0 59874 34020.000000 0      2443092.025      6245675.505     -2206825.689
10 0 59874 34200.000000 0      2509806.973      5638155.279     -3429051.448
10 0 59874 34380.000000 0      2466500.768      4825053.965     -4525535.196
10 0 59874 34560.000000 0      2309881.235      3839098.777     -5456247.799
10 0 59874 34740.000000 0      2041718.721      2719265.584     -6187332.704
10 0 59874 34920.000000 0      1668897.172      1509183.425     -6692299.143
10 0 59874 35100.000000 0      1203243.417       255402.247     -6952925.710
10 0 59874 35280.000000 0       661145.068      -994403.360     -6959865.021
10 0 59874 35460.000000 0        62967.508     -2193234.599     -6712940.575
10 0 59874 35640.000000 0      -567704.896     -3296511.131     -6221140.097
10 0 59874 35820.000000 0     -1204984.848     -4263715.779     -5502311.253
10 0 59874 36000.000000 0     -1821725.176     -5059887.623     -4582555.036
10 0 59874 36180.000000 0     -2390656.544     -5656915.666     -3495328.081
10 0 59874 36360.000000 0     -2885576.399     -6034577.722     -2280264.329
10 0 59874 36540.000000 0     -3282535.356     -6181275.855      -981749.913
10 0 59874 36720.000000 0     -3560965.264     -6094430.043       352706.547
10 0 59874 36900.000000 0     -3704686.596     -5780497.830      1674246.065
10 0 59874 37080.000000 0     -3702740.439     -5254615.265      2934492.739
10 0 59874 37260.000000 0     -3550000.719     -4539877.405      4087363.603
10 0 59874 37440.000000 0     -3247537.199     -3666302.465      5090774.077
10 0 59874 37620.000000 0     -2802714.721     -2669534.747      5908169.483
10 0 59874 37800.000000 0     -2229027.636     -1589358.450      6509826.512
10 0 59874 37980.000000 0     -1545680.860      -468093.487      6873893.653
10 0 59874 38160.000000 0      -776934.539       651067.481      6987140.171
10 0 59874 38340.000000 0        48755.177      1725708.945      6845402.520
10 0 59874 38520.000000 0       899778.164      2715785.061      6453734.850
10 0 59874 38700.000000 0      1742566.636      3585104.628      5826250.357
10 0 59874 38880.000000 0      2542905.520      4302662.584      4985658.473
10 0 59874 39060.000000 0      3267318.521      4843777.561      3962497.894
10 0 59874 39240.000000 0      3884475.339      5190985.068      2794074.582
10 0 59874 39420.000000 0      4366565.961      5334653.669      1523129.062
10 0 59874 39600.000000 0      4690566.449      5273276.025       196261.737
10 0 59874 39780.000000 0      4839329.617      5013421.090     -1137813.213
10 0 59874 39960.000000 0      4802438.873      4569334.383     -2430112.886
10 0 59874 40140.000000 0      4576780.832      3962215.437     -3633239.026
10 0 59874 40320.000000 0      4166803.688      3219211.299     -4703160.375
10 0 59874 40500.000000 0      3584450.939      2372181.381     -5600839.920
10 0 59874 40680.000000 0      2848783.998      1456302.482     -6293644.302
10 0 59874 40860.000000 0      1985314.489       508585.320     -6756487.498
10 0 59874 41040.000000 0      1025085.633      -433626.930     -6972680.331
10 0 59874 41220.000000 0         3542.058     -1334121.347     -6934482.628
10 0 59874 41400.000000 0     -1040777.447     -2159190.356     -6643346.091
10 0 59874 41580.000000 0     -2067678.060     -2878875.683     -6109856.040
10 0 59874 41760.000000 0     -3036838.536     -3468050.155     -5353370.671
10 0 59874 41940.000000 0     -3909385.250     -3907303.322     -4401365.497
10 0 59874 42120.000000 0     -4649461.438     -4183601.833     -3288483.846
10 0 59874 42300.000000 0     -5225722.826     -4290691.938     -2055312.098
10 0 59874 42480.000000 0     -5612692.897     -4229223.844      -746912.724
10 0 59874 42660.000000 0     -5791907.916     -4006586.230       588834.529
10 0 59874 42840.000000 0     -5752790.630     -3636456.608      1903019.057
10 0 59874 43020.000000 0     -5493198.560     -3138084.303      3147537.538
10 0 59874 43200.000000 0     -5019617.176     -2535344.236      4276891.768
10 0 59874 43380.000000 0     -4346994.070     -1855615.968      5249869.943
10 0 59874 43560.000000 0     -3498227.787     -1128547.479      6031038.266
10 0 59874 43740.000000 0     -2503349.040      -384769.856      6591999.168
10 0 59874 43920.000000 0     -1398423.939       345386.495      6912382.177
10 0 59874 44100.000000 0      -224229.939      1033114.210      6980536.742
10 0 59874 44280.000000 0       975241.322      1652249.681      6793929.000
10 0 59874 44460.000000 0      2154414.470      2180261.127      6359236.147
10 0 59874 44640.000000 0      3267845.584      2599068.939      5692134.107
10 0 59874 44820.000000 0      4271971.991      2895674.479      4816782.283
10 0 59874 45000.000000 0      5126835.516      3062577.135      3765003.251
99
